0 DELTA 1 R/B
1 01433U 65051B   13281.99105996  .00000473  00000-0  12034-3 0  8425
2 01433 098.6257 273.0689 0045325 143.4517 216.9786 14.54843903540659
0 DELTA 1 R/B
1 01433U 65051B   13283.09148093  .00000469  00000-0  11943-3 0  8437
2 01433 098.6256 274.2041 0045345 140.1908 220.2630 14.54845212540812
0 DELTA 1 R/B
1 01433U 65051B   13284.53578166  .00000532  00000-0  13385-3 0  8449
2 01433 098.6255 275.6940 0045409 135.8692 224.6142 14.54847051541029
0 DELTA 1 R/B
1 01433U 65051B   13285.56742351  .00000542  00000-0  13607-3 0  8451
2 01433 098.6255 276.7581 0045427 132.7960 227.7070 14.54847858541171
0 DELTA 1 R/B
1 01433U 65051B   13286.59906440  .00000537  00000-0  13506-3 0  8469
2 01433 098.6255 277.8222 0045454 129.7197 230.8019 14.54849187541325
0 DELTA 1 R/B
1 01433U 65051B   13287.97458436  .00000917  00000-0  22229-3 0  8474
2 01433 098.6256 279.2409 0045489 125.6107 234.9340 14.54852201541528
0 DELTA 1 R/B
1 01433U 65051B   13289.07499772  .00000743  00000-0  18232-3 0  8482
2 01433 098.6258 280.3759 0045515 122.3280 238.2336 14.54854841541688
0 DELTA 1 R/B
1 01433U 65051B   13290.51928775  .00000706  00000-0  17380-3 0  8496
2 01433 098.6260 281.8655 0045570 118.0286 242.5530 14.54856745541893
0 DELTA 1 R/B
1 01433U 65051B   13291.55092142  .00000691  00000-0  17025-3 0  8502
2 01433 098.6262 282.9295 0045569 114.9667 245.6273 14.54858010542046
0 DELTA 1 R/B
1 01433U 65051B   13292.85765547  .00000799  00000-0  19502-3 0  8514
2 01433 098.6264 284.2773 0045602 111.0637 249.5444 14.54859323542239
0 DELTA 1 R/B
1 01433U 65051B   13294.02683730  .00000770  00000-0  18850-3 0  8523
2 01433 098.6265 285.4834 0045599 107.5954 253.0230 14.54861558542403
0 DELTA 1 R/B
1 01433U 65051B   13295.05846636  .00000850  00000-0  20693-3 0  8531
2 01433 098.6266 286.5476 0045595 104.5232 256.1028 14.54862935542555
